XRISM                   
1 57800U 23137A   24196.22058751  .00005197  00000+0  38579-3 0  9994
2 57800  31.0016 200.4919 0009538 118.6226 241.5370 15.01501984 46757
